KUZGTU 1 (RS47S)        
1 57217U 23091AV  26188.43819987  .00008534  00000+0  29284-3 0  9998
2 57217  97.5051 253.1294 0010900  33.2258 326.9665 15.30350683167476
SONATE-2                
1 59112U 24043Q   26188.47896186  .00031562  00000+0  38565-3 0  9991
2 59112  97.5550 340.1459 0007012 130.6505 229.5363 15.60352887131052
MESAT1                  
1 60209U 24125G   26188.06446918  .00053923  00000+0  53362-3 0  9997
2 60209  97.2265  46.0297 0010913 137.1640 223.0472 15.65621235112677
OOV-CUBE (TUBSAT-30)    
1 60240U 24128F   26187.41788602  .00002062  00000+0  16592-3 0  9994
2 60240  61.9939 158.5121 0042205 138.0070 222.4270 15.02848993109004
COLIBRI-S (RS67S)       
1 61746U 24199M   26188.48685421  .00016174  00000+0  30415-3 0  9996
2 61746  97.2968  62.5342 0007955 190.0027 170.1067 15.48612704140559
HORS 3 (RS81S)          
1 61753U 24199U   26188.47996752  .00027470  00000+0  38843-3 0  9999
2 61753  97.2947  64.7420 0006108 180.9290 179.1955 15.56483407140712
HORS 4 (RS82S)          
1 61754U 24199V   26188.50419770  .00041033  00000+0  47407-3 0  9991
2 61754  97.2888  66.1071 0006088 170.7305 189.4067 15.61770854140816
SIT-2086                
1 61764U 24199AF  26188.48289667  .00027287  00000+0  41342-3 0  9996
2 61764  97.2905  65.1510 0007342 168.4182 191.7242 15.54589359137586
HYPERVIEW 1G (RS66S)    
1 61772U 24199AP  26188.34427282  .00175601  00000+0  82644-3 0  9991
2 61772  97.2823  69.1689 0007795 163.9657 196.1861 15.82610453137851
ALTAIR (RS65S)          
1 61779U 24199AW  26188.48683295  .00005269  00000+0  14566-3 0  9991
2 61779  97.3006  57.7060 0011279 226.3777 133.6533 15.37409611140237
ASRTU-1 (AO-123)        
1 61781U 24199AY  26188.49311348  .00005455  00000+0  15771-3 0  9998
2 61781  97.2977  56.9818 0012263 230.4345 129.5816 15.35976785137041
SAMSAT-IONOSPHERE (RS7*)
1 61784U 24199BB  26188.47692355  .00035022  00000+0  44050-3 0  9994
2 61784  97.2912  64.8645 0008229 186.4620 173.6532 15.59554923140728
RTU MIREA 1 (RS51S)     
1 61785U 24199BC  26188.51739465  .00047706  00000+0  51366-3 0  9994
2 61785  97.2899  65.8490 0008428 180.1745 179.9512 15.63536968137640
TEVEL2-4                
1 63213U 25052D   26188.13050257  .00014545  00000+0  42540-3 0  9993
2 63213  97.3871  84.5615 0004219  68.7261 291.4433 15.35362682 73172
TEVEL2-5                
1 63214U 25052E   26188.15330500  .00012970  00000+0  38186-3 0  9999
2 63214  97.3871  84.5265 0004213  69.6988 290.4708 15.35179600 73174
TEVEL2-6                
1 63215U 25052F   26188.16609047  .00012706  00000+0  37456-3 0  9992
2 63215  97.3876  84.5240 0004075  72.3714 287.7974 15.35145288 73176
TEVEL2-1                
1 63217U 25052H   26187.68057351  .00015226  00000+0  45647-3 0  9996
2 63217  97.3844  83.6383 0004748  76.8203 283.3570 15.34567986 73086
TEVEL2-3                
1 63218U 25052J   26188.13090573  .00013975  00000+0  41826-3 0  9995
2 63218  97.3851  84.1135 0004506  77.8905 282.2843 15.34642806 73152
TEVEL2-2                
1 63219U 25052K   26188.13720451  .00013555  00000+0  40642-3 0  9990
2 63219  97.3844  84.0980 0004751  77.1057 283.0716 15.34592055 73153
OTP-2                   
1 63235U 25052AB  26188.12025705  .00005450  00000+0  22596-3 0  9990
2 63235  97.3841  80.2531 0008297  92.7944 267.4243 15.24265512 72902
TEVEL2-9                
1 63237U 25052AD  26187.68368610  .00013872  00000+0  44317-3 0  9999
2 63237  97.3912  82.9767 0008199  80.0094 280.2072 15.32543225 73015
TEVEL2-7                
1 63238U 25052AE  26187.66312631  .00014189  00000+0  45764-3 0  9999
2 63238  97.3912  82.8636 0008261  80.2460 279.9714 15.32230916 73006
TEVEL2-8                
1 63239U 25052AF  26188.12871407  .00012391  00000+0  40010-3 0  9995
2 63239  97.3910  83.3046 0008212  79.6635 280.5533 15.32228302 73078
INNOSAT 16 (RS92S7)     
1 64878U 25155C   26188.53226659  .00004394  00000+0  17510-3 0  9990
2 64878  97.4576 155.5988 0012384 111.2430 249.0132 15.25681908 83775
GEOSCAN 6 (RS92S6)      
1 64879U 25155D   26188.51697743  .00007493  00000+0  25594-3 0  9999
2 64879  97.4567 157.1535 0009994 103.6787 256.5567 15.30552772 83873
GEOSCAN 1 (RS92S1)      
1 64880U 25155E   26188.51125041  .00007518  00000+0  25178-3 0  9994
2 64880  97.4563 157.3139 0009902 103.6902 256.5442 15.31189154 83885
239ALFEROV (RS61S)      
1 64881U 25155F   26188.51627889  .00010445  00000+0  32428-3 0  9991
2 64881  97.4563 157.9505 0009625 103.1752 257.0564 15.33520416 83927
GEOSCAN 2 (RS92S2)      
1 64890U 25155Q   26188.50141963  .00007692  00000+0  25554-3 0  9996
2 64890  97.4562 157.4644 0009269  93.4627 266.7674 15.31448015 83898
GEOSCAN 5 (RS92S5)      
1 64891U 25155R   26188.50113206  .00009637  00000+0  29660-3 0  9999
2 64891  97.4555 158.0804 0008601 106.9297 253.2889 15.33830783 83931
GEOSCAN 4 (RS92S4)      
1 64892U 25155S   26188.48322647  .00010365  00000+0  31718-3 0  9995
2 64892  97.4559 158.1168 0008571 106.9167 253.3016 15.33992749 83936
