OBJECT_NAME,OBJECT_ID,EPOCH,MEAN_MOTION,ECCENTRICITY,INCLINATION,RA_OF_ASC_NODE,ARG_OF_PERICENTER,MEAN_ANOMALY,EPHEMERIS_TYPE,CLASSIFICATION_TYPE,NORAD_CAT_ID,ELEMENT_SET_NO,REV_AT_EPOCH,BSTAR,MEAN_MOTION_DOT,MEAN_MOTION_DDOT
KUZGTU 1 (RS47S),2023-091AV,2026-07-07T10:31:00.468768,15.30350683,.00109,97.5051,253.1294,33.2258,326.9665,0,U,57217,999,16747,.29284E-3,.8534E-4,0
SONATE-2,2024-043Q,2026-07-07T11:29:42.304704,15.60352887,.0007012,97.5550,340.1459,130.6505,229.5363,0,U,59112,999,13105,.38565E-3,.31562E-3,0
MESAT1,2024-125G,2026-07-07T01:32:50.137152,15.65621235,.0010913,97.2265,46.0297,137.1640,223.0472,0,U,60209,999,11267,.53362E-3,.53923E-3,0
OOV-CUBE (TUBSAT-30),2024-128F,2026-07-06T10:01:45.352128,15.02848993,.0042205,61.9939,158.5121,138.0070,222.4270,0,U,60240,999,10900,.16592E-3,.2062E-4,0
COLIBRI-S (RS67S),2024-199M,2026-07-07T11:41:04.203744,15.48612704,.0007955,97.2968,62.5342,190.0027,170.1067,0,U,61746,999,14055,.30415E-3,.16174E-3,0
HORS 3 (RS81S),2024-199U,2026-07-07T11:31:09.193728,15.56483407,.0006108,97.2947,64.7420,180.9290,179.1955,0,U,61753,999,14071,.38843E-3,.2747E-3,0
HORS 4 (RS82S),2024-199V,2026-07-07T12:06:02.681280,15.61770854,.0006088,97.2888,66.1071,170.7305,189.4067,0,U,61754,999,14081,.47407E-3,.41033E-3,0
SIT-2086,2024-199AF,2026-07-07T11:35:22.272288,15.54589359,.0007342,97.2905,65.1510,168.4182,191.7242,0,U,61764,999,13758,.41342E-3,.27287E-3,0
HYPERVIEW 1G (RS66S),2024-199AP,2026-07-07T08:15:45.171648,15.82610453,.0007795,97.2823,69.1689,163.9657,196.1861,0,U,61772,999,13785,.82644E-3,.175601E-2,0
ALTAIR (RS65S),2024-199AW,2026-07-07T11:41:02.366880,15.37409611,.0011279,97.3006,57.7060,226.3777,133.6533,0,U,61779,999,14023,.14566E-3,.5269E-4,0
ASRTU-1 (AO-123),2024-199AY,2026-07-07T11:50:05.004672,15.35976785,.0012263,97.2977,56.9818,230.4345,129.5816,0,U,61781,999,13704,.15771E-3,.5455E-4,0
SAMSAT-IONOSPHERE (RS75S),2024-199BB,2026-07-07T11:26:46.194720,15.59554923,.0008229,97.2912,64.8645,186.4620,173.6532,0,U,61784,999,14072,.4405E-3,.35022E-3,0
RTU MIREA 1 (RS51S),2024-199BC,2026-07-07T12:25:02.897760,15.63536968,.0008428,97.2899,65.8490,180.1745,179.9512,0,U,61785,999,13764,.51366E-3,.47706E-3,0
TEVEL2-4,2025-052D,2026-07-07T03:07:55.422048,15.35362682,.0004219,97.3871,84.5615,68.7261,291.4433,0,U,63213,999,7317,.4254E-3,.14545E-3,0
TEVEL2-5,2025-052E,2026-07-07T03:40:45.552000,15.35179600,.0004213,97.3871,84.5265,69.6988,290.4708,0,U,63214,999,7317,.38186E-3,.1297E-3,0
TEVEL2-6,2025-052F,2026-07-07T03:59:10.216608,15.35145288,.0004075,97.3876,84.5240,72.3714,287.7974,0,U,63215,999,7317,.37456E-3,.12706E-3,0
TEVEL2-1,2025-052H,2026-07-06T16:20:01.551264,15.34567986,.0004748,97.3844,83.6383,76.8203,283.3570,0,U,63217,999,7308,.45647E-3,.15226E-3,0
TEVEL2-3,2025-052J,2026-07-07T03:08:30.255072,15.34642806,.0004506,97.3851,84.1135,77.8905,282.2843,0,U,63218,999,7315,.41826E-3,.13975E-3,0
TEVEL2-2,2025-052K,2026-07-07T03:17:34.469664,15.34592055,.0004751,97.3844,84.0980,77.1057,283.0716,0,U,63219,999,7315,.40642E-3,.13555E-3,0
OTP-2,2025-052AB,2026-07-07T02:53:10.209120,15.24265512,.0008297,97.3841,80.2531,92.7944,267.4243,0,U,63235,999,7290,.22596E-3,.545E-4,0
TEVEL2-9,2025-052AD,2026-07-06T16:24:30.479040,15.32543225,.0008199,97.3912,82.9767,80.0094,280.2072,0,U,63237,999,7301,.44317E-3,.13872E-3,0
TEVEL2-7,2025-052AE,2026-07-06T15:54:54.113184,15.32230916,.0008261,97.3912,82.8636,80.2460,279.9714,0,U,63238,999,7300,.45764E-3,.14189E-3,0
TEVEL2-8,2025-052AF,2026-07-07T03:05:20.895648,15.32228302,.0008212,97.3910,83.3046,79.6635,280.5533,0,U,63239,999,7307,.4001E-3,.12391E-3,0
INNOSAT 16 (RS92S7),2025-155C,2026-07-07T12:46:27.833376,15.25681908,.0012384,97.4576,155.5988,111.2430,249.0132,0,U,64878,999,8377,.1751E-3,.4394E-4,0
GEOSCAN 6 (RS92S6),2025-155D,2026-07-07T12:24:26.849952,15.30552772,.0009994,97.4567,157.1535,103.6787,256.5567,0,U,64879,999,8387,.25594E-3,.7493E-4,0
GEOSCAN 1 (RS92S1),2025-155E,2026-07-07T12:16:12.035424,15.31189154,.0009902,97.4563,157.3139,103.6902,256.5442,0,U,64880,999,8388,.25178E-3,.7518E-4,0
239ALFEROV (RS61S),2025-155F,2026-07-07T12:23:26.496096,15.33520416,.0009625,97.4563,157.9505,103.1752,257.0564,0,U,64881,999,8392,.32428E-3,.10445E-3,0
GEOSCAN 2 (RS92S2),2025-155Q,2026-07-07T12:02:02.656032,15.31448015,.0009269,97.4562,157.4644,93.4627,266.7674,0,U,64890,999,8389,.25554E-3,.7692E-4,0
GEOSCAN 5 (RS92S5),2025-155R,2026-07-07T12:01:37.809984,15.33830783,.0008601,97.4555,158.0804,106.9297,253.2889,0,U,64891,999,8393,.2966E-3,.9637E-4,0
GEOSCAN 4 (RS92S4),2025-155S,2026-07-07T11:35:50.767008,15.33992749,.0008571,97.4559,158.1168,106.9167,253.3016,0,U,64892,999,8393,.31718E-3,.10365E-3,0
